[{"OBJECT_NAME":"STARLINK-1627","OBJECT_ID":"2020-057BD","EPOCH":"2026-03-10T00:00:02.999808","MEAN_MOTION":15.7182535,"ECCENTRICITY":0.00032384,"INCLINATION":53.043,"RA_OF_ASC_NODE":223.2369,"ARG_OF_PERICENTER":42.9244,"MEAN_ANOMALY":228.4026,"EPHEMERIS_TYPE":0,"CLASSIFICATION_TYPE":"U","NORAD_CAT_ID":46168,"ELEMENT_SET_NO":999,"REV_AT_EPOCH":596,"BSTAR":0.00036555083,"MEAN_MOTION_DOT":0.00048075,"MEAN_MOTION_DDOT":0},{"OBJECT_NAME":"STARLINK-11529 [DTC]","OBJECT_ID":"2025-008N","EPOCH":"2026-03-09T10:19:56.360352","MEAN_MOTION":15.70865981,"ECCENTRICITY":5.522e-5,"INCLINATION":42.9995,"RA_OF_ASC_NODE":127.7082,"ARG_OF_PERICENTER":289.9123,"MEAN_ANOMALY":70.1685,"EPHEMERIS_TYPE":0,"CLASSIFICATION_TYPE":"U","NORAD_CAT_ID":62599,"ELEMENT_SET_NO":999,"REV_AT_EPOCH":6725,"BSTAR":0.0014478625,"MEAN_MOTION_DOT":0.00189844,"MEAN_MOTION_DDOT":0}]
